{"type": "FeatureCollection", "features": [ {"type": "Feature", "properties": {"norad_id": 66869, "name": "STARLINK-36092", "group": "last-30-days", "lat": -31.737408710741292, "lon": 2.1637786557659804, "alt_km": 412.2790374230408, "timestamp": "2025-12-25T16:53:13.373341+00:00", "meta": {"OBJECT_NAME": "STARLINK-36092", "OBJECT_ID": "2025-281X", "EPOCH": "2025-12-25T08:00:01.000224", "MEAN_MOTION": 15.53770894, "ECCENTRICITY": 0.00016788, "INCLINATION": 43.0001, "RA_OF_ASC_NODE": 45.9243, "ARG_OF_PERICENTER": 272.0326, "MEAN_ANOMALY": 124.9081, "EPHEMERIS_TYPE": 0, "CLASSIFICATION_TYPE": "U", "NORAD_CAT_ID": 66869, "ELEMENT_SET_NO": 999, "REV_AT_EPOCH": 344, "BSTAR": -0.03399283, "MEAN_MOTION_DOT": -0.02000851, "MEAN_MOTION_DDOT": 0}, "tle": {"line1": "1 66869U 25281X   25359.33334491 -.02000851  00000+0 -33993-1 0  9992", "line2": "2 66869  43.0001  45.9243 0001678 272.0326 124.9081 15.53770894  3441"}}, "geometry": {"type": "Point", "coordinates": [2.1637786557659804, -31.737408710741292]}}, {"type": "Feature", "properties": {"norad_id": 66870, "name": "STARLINK-36114", "group": "last-30-days", "lat": -30.747519982864926, "lon": 4.074152571834262, "alt_km": 412.35568835691083, "timestamp": "2025-12-25T16:53:13.373354+00:00", "meta": {"OBJECT_NAME": "STARLINK-36114", "OBJECT_ID": "2025-281Y", "EPOCH": "2025-12-25T08:00:01.000224", "MEAN_MOTION": 15.53769111, "ECCENTRICITY": 0.00014804, "INCLINATION": 43.0001, "RA_OF_ASC_NODE": 45.9197, "ARG_OF_PERICENTER": 272.2873, "MEAN_ANOMALY": 126.5711, "EPHEMERIS_TYPE": 0, "CLASSIFICATION_TYPE": "U", "NORAD_CAT_ID": 66870, "ELEMENT_SET_NO": 999, "REV_AT_EPOCH": 331, "BSTAR": -0.033965917, "MEAN_MOTION_DOT": -0.01999195, "MEAN_MOTION_DDOT": 0}, "tle": {"line1": "1 66870U 25281Y   25359.33334491 -.01999195  00000+0 -33966-1 0  9991", "line2": "2 66870  43.0001  45.9197 0001480 272.2873 126.5711 15.53769111  3315"}}, "geometry": {"type": "Point", "coordinates": [4.074152571834262, -30.747519982864926]}}, {"type": "Feature", "properties": {"norad_id": 66871, "name": "STARLINK-36095", "group": "last-30-days", "lat": -29.72764864109731, "lon": 5.949019128804075, "alt_km": 412.4235818572424, "timestamp": "2025-12-25T16:53:13.373364+00:00", "meta": {"OBJECT_NAME": "STARLINK-36095", "OBJECT_ID": "2025-281Z", "EPOCH": "2025-12-25T08:00:01.000224", "MEAN_MOTION": 15.53771238, "ECCENTRICITY": 0.00014428, "INCLINATION": 43.0001, "RA_OF_ASC_NODE": 45.9147, "ARG_OF_PERICENTER": 267.3581, "MEAN_ANOMALY": 133.4181, "EPHEMERIS_TYPE": 0, "CLASSIFICATION_TYPE": "U", "NORAD_CAT_ID": 66871, "ELEMENT_SET_NO": 999, "REV_AT_EPOCH": 344, "BSTAR": -0.034042949, "MEAN_MOTION_DOT": -0.0200337, "MEAN_MOTION_DDOT": 0}, "tle": {"line1": "1 66871U 25281Z   25359.33334491 -.02003370  00000+0 -34043-1 0  9991", "line2": "2 66871  43.0001  45.9147 0001442 267.3581 133.4181 15.53771238  3445"}}, "geometry": {"type": "Point", "coordinates": [5.949019128804075, -29.72764864109731]}}, {"type": "Feature", "properties": {"norad_id": 66872, "name": "STARLINK-36082", "group": "last-30-days", "lat": -28.68257199484702, "lon": 7.7842722248020495, "alt_km": 412.20644148781685, "timestamp": "2025-12-25T16:53:13.373387+00:00", "meta": {"OBJECT_NAME": "STARLINK-36082", "OBJECT_ID": "2025-281AA", "EPOCH": "2025-12-25T08:00:01.000224", "MEAN_MOTION": 15.53773879, "ECCENTRICITY": 0.00016771, "INCLINATION": 43.0001, "RA_OF_ASC_NODE": 45.9098, "ARG_OF_PERICENTER": 270.285, "MEAN_ANOMALY": 132.4057, "EPHEMERIS_TYPE": 0, "CLASSIFICATION_TYPE": "U", "NORAD_CAT_ID": 66872, "ELEMENT_SET_NO": 999, "REV_AT_EPOCH": 331, "BSTAR": -0.034077763, "MEAN_MOTION_DOT": -0.0200552, "MEAN_MOTION_DDOT": 0}, "tle": {"line1": "1 66872U 25281AA  25359.33334491 -.02005520  00000+0 -34078-1 0  9999", "line2": "2 66872  43.0001  45.9098 0001677 270.2850 132.4057 15.53773879  3313"}}, "geometry": {"type": "Point", "coordinates": [7.7842722248020495, -28.68257199484702]}}, {"type": "Feature", "properties": {"norad_id": 66873, "name": "STARLINK-36128", "group": "last-30-days", "lat": -25.408115783397324, "lon": 13.072755547593802, "alt_km": 412.08784796164946, "timestamp": "2025-12-25T16:53:13.373401+00:00", "meta": {"OBJECT_NAME": "STARLINK-36128", "OBJECT_ID": "2025-281AB", "EPOCH": "2025-12-25T08:00:01.000224", "MEAN_MOTION": 15.53772914, "ECCENTRICITY": 0.0001596, "INCLINATION": 42.9995, "RA_OF_ASC_NODE": 45.8946, "ARG_OF_PERICENTER": 271.8241, "MEAN_ANOMALY": 136.6197, "EPHEMERIS_TYPE": 0, "CLASSIFICATION_TYPE": "U", "NORAD_CAT_ID": 66873, "ELEMENT_SET_NO": 999, "REV_AT_EPOCH": 344, "BSTAR": -0.034086276, "MEAN_MOTION_DOT": -0.02005855, "MEAN_MOTION_DDOT": 0}, "tle": {"line1": "1 66873U 25281AB  25359.33334491 -.02005855  00000+0 -34086-1 0  9990", "line2": "2 66873  42.9995  45.8946 0001596 271.8241 136.6197 15.53772914  3440"}}, "geometry": {"type": "Point", "coordinates": [13.072755547593802, -25.408115783397324]}}, {"type": "Feature", "properties": {"norad_id": 66874, "name": "STARLINK-36129", "group": "last-30-days", "lat": -27.61618592789881, "lon": 9.57784756122882, "alt_km": 412.071349291552, "timestamp": "2025-12-25T16:53:13.373411+00:00", "meta": {"OBJECT_NAME": "STARLINK-36129", "OBJECT_ID": "2025-281AC", "EPOCH": "2025-12-25T08:00:01.000224", "MEAN_MOTION": 15.53769022, "ECCENTRICITY": 0.00016083, "INCLINATION": 43.0003, "RA_OF_ASC_NODE": 45.9048, "ARG_OF_PERICENTER": 277.365, "MEAN_ANOMALY": 127.2425, "EPHEMERIS_TYPE": 0, "CLASSIFICATION_TYPE": "U", "NORAD_CAT_ID": 66874, "ELEMENT_SET_NO": 999, "REV_AT_EPOCH": 344, "BSTAR": -0.033924951, "MEAN_MOTION_DOT": -0.01997108, "MEAN_MOTION_DDOT": 0}, "tle": {"line1": "1 66874U 25281AC  25359.33334491 -.01997108  00000+0 -33925-1 0  9992", "line2": "2 66874  43.0003  45.9048 0001608 277.3650 127.2425 15.53769022  3442"}}, "geometry": {"type": "Point", "coordinates": [9.57784756122882, -27.61618592789881]}}, {"type": "Feature", "properties": {"norad_id": 66875, "name": "STARLINK-36053", "group": "last-30-days", "lat": -24.275229922264582, "lon": 14.768999318716542, "alt_km": 411.9515349304984, "timestamp": "2025-12-25T16:53:13.373421+00:00", "meta": {"OBJECT_NAME": "STARLINK-36053", "OBJECT_ID": "2025-281AD", "EPOCH": "2025-12-25T08:00:01.000224", "MEAN_MOTION": 15.53770973, "ECCENTRICITY": 0.00016588, "INCLINATION": 42.9998, "RA_OF_ASC_NODE": 45.8891, "ARG_OF_PERICENTER": 274.409, "MEAN_ANOMALY": 135.9521, "EPHEMERIS_TYPE": 0, "CLASSIFICATION_TYPE": "U", "NORAD_CAT_ID": 66875, "ELEMENT_SET_NO": 999, "REV_AT_EPOCH": 344, "BSTAR": -0.034023813, "MEAN_MOTION_DOT": -0.02002477, "MEAN_MOTION_DDOT": 0}, "tle": {"line1": "1 66875U 25281AD  25359.33334491 -.02002477  00000+0 -34024-1 0  9991", "line2": "2 66875  42.9998  45.8891 0001658 274.4090 135.9521 15.53770973  3440"}}, "geometry": {"type": "Point", "coordinates": [14.768999318716542, -24.275229922264582]}}, {"type": "Feature", "properties": {"norad_id": 66876, "name": "STARLINK-35702", "group": "last-30-days", "lat": -26.520107771530046, "lon": 11.345182264541092, "alt_km": 412.1942995028876, "timestamp": "2025-12-25T16:53:13.373431+00:00", "meta": {"OBJECT_NAME": "STARLINK-35702", "OBJECT_ID": "2025-281AE", "EPOCH": "2025-12-25T06:00:04.000320", "MEAN_MOTION": 15.54167097, "ECCENTRICITY": 0.00013036, "INCLINATION": 42.9996, "RA_OF_ASC_NODE": 46.3886, "ARG_OF_PERICENTER": 263.2968, "MEAN_ANOMALY": 36.6635, "EPHEMERIS_TYPE": 0, "CLASSIFICATION_TYPE": "U", "NORAD_CAT_ID": 66876, "ELEMENT_SET_NO": 999, "REV_AT_EPOCH": 343, "BSTAR": -0.034324003, "MEAN_MOTION_DOT": -0.02044551, "MEAN_MOTION_DDOT": 0}, "tle": {"line1": "1 66876U 25281AE  25359.25004630 -.02044551  00000+0 -34324-1 0  9994", "line2": "2 66876  42.9996  46.3886 0001303 263.2968  36.6635 15.54167097  3436"}}, "geometry": {"type": "Point", "coordinates": [11.345182264541092, -26.520107771530046]}}, {"type": "Feature", "properties": {"norad_id": 66877, "name": "ZQ-3 R/B", "group": "last-30-days", "lat": -32.846834460894144, "lon": -17.808648379303065, "alt_km": 479.43671252702006, "timestamp": "2025-12-25T16:53:13.373442+00:00", "meta": {"OBJECT_NAME": "ZQ-3 R/B", "OBJECT_ID": "2025-282A", "EPOCH": "2025-12-25T05:45:52.511904", "MEAN_MOTION": 14.85076412, "ECCENTRICITY": 0.06733357, "INCLINATION": 56.9492, "RA_OF_ASC_NODE": 8.893, "ARG_OF_PERICENTER": 242.0471, "MEAN_ANOMALY": 111.0851, "EPHEMERIS_TYPE": 0, "CLASSIFICATION_TYPE": "U", "NORAD_CAT_ID": 66877, "ELEMENT_SET_NO": 999, "REV_AT_EPOCH": 323, "BSTAR": 0.00016486506, "MEAN_MOTION_DOT": 0.00979538, "MEAN_MOTION_DDOT": 7.936022e-06}, "tle": {"line1": "1 66877U 25282A   25359.24019111  .00979538  79360-5  16487-3 0  9996", "line2": "2 66877  56.9492   8.8930 0673335 242.0471 111.0851 14.85076412  3239"}}, "geometry": {"type": "Point", "coordinates": [-17.808648379303065, -32.846834460894144]}}, {"type": "Feature", "properties": {"norad_id": 66878, "name": "STARLINK-35866", "group": "last-30-days", "lat": 51.57947688311395, "lon": 118.30870348520347, "alt_km": 380.29945394782044, "timestamp": "2025-12-25T16:53:13.373454+00:00", "meta": {"OBJECT_NAME": "STARLINK-35866", "OBJECT_ID": "2025-283A", "EPOCH": "2025-12-25T06:00:04.000320", "MEAN_MOTION": 15.61835532, "ECCENTRICITY": 0.0001235, "INCLINATION": 53.16, "RA_OF_ASC_NODE": 11.4638, "ARG_OF_PERICENTER": 68.644, "MEAN_ANOMALY": 2.9075, "EPHEMERIS_TYPE": 0, "CLASSIFICATION_TYPE": "U", "NORAD_CAT_ID": 66878, "ELEMENT_SET_NO": 999, "REV_AT_EPOCH": 443, "BSTAR": -0.025769291, "MEAN_MOTION_DOT": -0.02000489, "MEAN_MOTION_DDOT": 0}, "tle": {"line1": "1 66878U 25283A   25359.25004630 -.02000489  00000+0 -25769-1 0  9993", "line2": "2 66878  53.1600  11.4638 0001235  68.6440   2.9075 15.61835532  4437"}}, "geometry": {"type": "Point", "coordinates": [118.30870348520347, 51.57947688311395]}}]}